OBJECT_NAME,OBJECT_ID,EPOCH,MEAN_MOTION,ECCENTRICITY,INCLINATION,RA_OF_ASC_NODE,ARG_OF_PERICENTER,MEAN_ANOMALY,EPHEMERIS_TYPE,CLASSIFICATION_TYPE,NORAD_CAT_ID,ELEMENT_SET_NO,REV_AT_EPOCH,BSTAR,MEAN_MOTION_DOT,MEAN_MOTION_DDOT
MICROCARB,2025-156A,2026-07-09T16:59:34.891872,14.72881364,.00171873,98.0075,267.4872,188.1611,171.9320,0,U,64899,999,5128,.60786372E-4,.34E-5,0
CO3D 3,2025-156B,2026-07-11T05:06:38.248416,15.20217233,.0001822,97.4336,270.5604,100.2422,259.9018,0,U,64900,999,5318,.12791E-3,.2704E-4,0
CO3D 4,2025-156C,2026-07-10T05:25:05.908512,15.20205175,.00012271,97.4337,269.5877,162.5388,197.5889,0,U,64901,999,5303,.42253728E-4,.847E-5,0
CO3D 2,2025-156D,2026-07-11T04:18:51.217344,15.20201227,.0001311,97.4336,270.4265,87.9925,272.1460,0,U,64902,999,5317,.12314E-3,.2599E-4,0
CO3D 1,2025-156E,2026-07-11T04:19:04.301760,15.20204785,.0001309,97.4336,270.4267,100.3083,259.8300,0,U,64903,999,5317,.12515E-3,.2643E-4,0
SENTINEL-6B,2025-264A,2026-07-10T02:50:15.264672,12.80930089,.00078778,66.0414,87.5519,268.8168,91.1945,0,U,66514,999,3010,-.35218925E-4,-.69E-6,0
CAS500-3,2025-274F,2026-07-10T06:36:10.338624,14.88376906,.00065732,97.7440,118.8011,51.3120,308.8684,0,U,66655,999,3358,.9098435E-4,.789E-5,0
CSG-3,2026-001A,2026-07-10T23:06:21.674304,14.82150168,.0001496,97.8893,15.2207,92.7707,267.3677,0,U,67304,999,2798,.27801E-4,.169E-5,0
PRSC-E03,2026-092A,2026-07-10T18:45:04.250016,15.06795926,.0004502,38.0023,310.5396,223.4596,136.5811,0,U,68835,999,1151,.11293E-3,.1604E-4,0
CAS500-2,2026-100AK,2026-07-11T04:03:33.295104,15.20873067,.0008028,97.3877,89.5712,308.8514,51.2005,0,U,69013,999,1045,.16396E-3,.3556E-4,0
